{"type": "FeatureCollection", "features": [ {"type": "Feature", "properties": {"norad_id": 67000, "name": "2025-292H", "group": "last-30-days", "lat": -73.79160713696467, "lon": 99.30187949766946, "alt_km": 552.1330388934193, "timestamp": "2025-12-25T07:00:32.766401+00:00", "meta": {"OBJECT_NAME": "2025-292H", "OBJECT_ID": "2025-292H", "EPOCH": "2025-12-24T21:46:15.755520", "MEAN_MOTION": 15.05041901, "ECCENTRICITY": 0.00147677, "INCLINATION": 97.6552, "RA_OF_ASC_NODE": 71.3585, "ARG_OF_PERICENTER": 235.3911, "MEAN_ANOMALY": 124.5923, "EPHEMERIS_TYPE": 0, "CLASSIFICATION_TYPE": "U", "NORAD_CAT_ID": 67000, "ELEMENT_SET_NO": 999, "REV_AT_EPOCH": 209, "BSTAR": 0.00053786509, "MEAN_MOTION_DOT": 7.6e-05, "MEAN_MOTION_DDOT": 0}, "tle": {"line1": "1 67000U 25292H   25358.90712680  .00007600  00000+0  53787-3 0  9994", "line2": "2 67000  97.6552  71.3585 0014767 235.3911 124.5923 15.05041901  2090"}}, "geometry": {"type": "Point", "coordinates": [99.30187949766946, -73.79160713696467]}}, {"type": "Feature", "properties": {"norad_id": 67001, "name": "2025-292J", "group": "last-30-days", "lat": -70.45090301688845, "lon": -130.5295445443219, "alt_km": 551.4364711346407, "timestamp": "2025-12-25T07:00:32.766416+00:00", "meta": {"OBJECT_NAME": "2025-292J", "OBJECT_ID": "2025-292J", "EPOCH": "2025-12-24T21:54:39.619584", "MEAN_MOTION": 15.04428553, "ECCENTRICITY": 0.00149816, "INCLINATION": 97.6531, "RA_OF_ASC_NODE": 71.3473, "ARG_OF_PERICENTER": 224.4474, "MEAN_ANOMALY": 135.5551, "EPHEMERIS_TYPE": 0, "CLASSIFICATION_TYPE": "U", "NORAD_CAT_ID": 67001, "ELEMENT_SET_NO": 999, "REV_AT_EPOCH": 222, "BSTAR": 0.00040851553, "MEAN_MOTION_DOT": 5.662e-05, "MEAN_MOTION_DDOT": 0}, "tle": {"line1": "1 67001U 25292J   25358.91295856  .00005662  00000+0  40852-3 0  9992", "line2": "2 67001  97.6531  71.3473 0014981 224.4474 135.5551 15.04428553  2220"}}, "geometry": {"type": "Point", "coordinates": [-130.5295445443219, -70.45090301688845]}}, {"type": "Feature", "properties": {"norad_id": 67002, "name": "ZK-1A R/B", "group": "last-30-days", "lat": -2.5583244311231708, "lon": -107.23858947342312, "alt_km": 495.9276238297771, "timestamp": "2025-12-25T07:00:32.766427+00:00", "meta": {"OBJECT_NAME": "ZK-1A R/B", "OBJECT_ID": "2025-292K", "EPOCH": "2025-12-24T19:25:44.119488", "MEAN_MOTION": 15.58439592, "ECCENTRICITY": 0.02061963, "INCLINATION": 97.7203, "RA_OF_ASC_NODE": 72.585, "ARG_OF_PERICENTER": 321.3647, "MEAN_ANOMALY": 37.3004, "EPHEMERIS_TYPE": 0, "CLASSIFICATION_TYPE": "U", "NORAD_CAT_ID": 67002, "ELEMENT_SET_NO": 999, "REV_AT_EPOCH": 227, "BSTAR": 0.00075988202, "MEAN_MOTION_DOT": 0.00163758, "MEAN_MOTION_DDOT": 9.378867e-06}, "tle": {"line1": "1 67002U 25292K   25358.80953842  .00163758  93789-5  75988-3 0  9998", "line2": "2 67002  97.7203  72.5850 0206196 321.3647  37.3004 15.58439592  2271"}}, "geometry": {"type": "Point", "coordinates": [-107.23858947342312, -2.5583244311231708]}}, {"type": "Feature", "properties": {"norad_id": 67003, "name": "STARLINK-35660", "group": "last-30-days", "lat": 0.1395407879189545, "lon": 107.42402385381841, "alt_km": 339.9037227959934, "timestamp": "2025-12-25T07:00:32.766438+00:00", "meta": {"OBJECT_NAME": "STARLINK-35660", "OBJECT_ID": "2025-293A", "EPOCH": "2025-12-24T22:00:03.000096", "MEAN_MOTION": 15.78901847, "ECCENTRICITY": 0.00035107, "INCLINATION": 69.9932, "RA_OF_ASC_NODE": 288.5429, "ARG_OF_PERICENTER": 267.7125, "MEAN_ANOMALY": 300.1788, "EPHEMERIS_TYPE": 0, "CLASSIFICATION_TYPE": "U", "NORAD_CAT_ID": 67003, "ELEMENT_SET_NO": 999, "REV_AT_EPOCH": 212, "BSTAR": -0.010758305, "MEAN_MOTION_DOT": -0.01657492, "MEAN_MOTION_DDOT": 0}, "tle": {"line1": "1 67003U 25293A   25358.91670139 -.01657492  00000+0 -10758-1 0  9993", "line2": "2 67003  69.9932 288.5429 0003510 267.7125 300.1788 15.78901847  2125"}}, "geometry": {"type": "Point", "coordinates": [107.42402385381841, 0.1395407879189545]}}, {"type": "Feature", "properties": {"norad_id": 67004, "name": "STARLINK-35913", "group": "last-30-days", "lat": -1.9046281346720153, "lon": 108.16644935073855, "alt_km": 340.04236683160343, "timestamp": "2025-12-25T07:00:32.766451+00:00", "meta": {"OBJECT_NAME": "STARLINK-35913", "OBJECT_ID": "2025-293B", "EPOCH": "2025-12-24T22:00:03.000096", "MEAN_MOTION": 15.78892057, "ECCENTRICITY": 0.00034654, "INCLINATION": 69.9932, "RA_OF_ASC_NODE": 288.5402, "ARG_OF_PERICENTER": 265.9717, "MEAN_ANOMALY": 304.1077, "EPHEMERIS_TYPE": 0, "CLASSIFICATION_TYPE": "U", "NORAD_CAT_ID": 67004, "ELEMENT_SET_NO": 999, "REV_AT_EPOCH": 212, "BSTAR": -0.010767028, "MEAN_MOTION_DOT": -0.01657966, "MEAN_MOTION_DDOT": 0}, "tle": {"line1": "1 67004U 25293B   25358.91670139 -.01657966  00000+0 -10767-1 0  9990", "line2": "2 67004  69.9932 288.5402 0003465 265.9717 304.1077 15.78892057  2120"}}, "geometry": {"type": "Point", "coordinates": [108.16644935073855, -1.9046281346720153]}}, {"type": "Feature", "properties": {"norad_id": 67005, "name": "STARLINK-36148", "group": "last-30-days", "lat": -4.029448156731299, "lon": 108.94090082421874, "alt_km": 340.085675633326, "timestamp": "2025-12-25T07:00:32.766461+00:00", "meta": {"OBJECT_NAME": "STARLINK-36148", "OBJECT_ID": "2025-293C", "EPOCH": "2025-12-24T22:00:03.000096", "MEAN_MOTION": 15.78876784, "ECCENTRICITY": 0.00036738, "INCLINATION": 69.9935, "RA_OF_ASC_NODE": 288.5381, "ARG_OF_PERICENTER": 262.5122, "MEAN_ANOMALY": 309.8497, "EPHEMERIS_TYPE": 0, "CLASSIFICATION_TYPE": "U", "NORAD_CAT_ID": 67005, "ELEMENT_SET_NO": 999, "REV_AT_EPOCH": 212, "BSTAR": -0.010755998, "MEAN_MOTION_DOT": -0.01655719, "MEAN_MOTION_DDOT": 0}, "tle": {"line1": "1 67005U 25293C   25358.91670139 -.01655719  00000+0 -10756-1 0  9993", "line2": "2 67005  69.9935 288.5381 0003673 262.5122 309.8497 15.78876784  2121"}}, "geometry": {"type": "Point", "coordinates": [108.94090082421874, -4.029448156731299]}}, {"type": "Feature", "properties": {"norad_id": 67006, "name": "STARLINK-36156", "group": "last-30-days", "lat": -8.808342290531128, "lon": 110.70024416604059, "alt_km": 340.7464913745089, "timestamp": "2025-12-25T07:00:32.766473+00:00", "meta": {"OBJECT_NAME": "STARLINK-36156", "OBJECT_ID": "2025-293D", "EPOCH": "2025-12-24T22:00:03.000096", "MEAN_MOTION": 15.78825689, "ECCENTRICITY": 0.00037303, "INCLINATION": 69.9932, "RA_OF_ASC_NODE": 288.5314, "ARG_OF_PERICENTER": 266.298, "MEAN_ANOMALY": 311.2252, "EPHEMERIS_TYPE": 0, "CLASSIFICATION_TYPE": "U", "NORAD_CAT_ID": 67006, "ELEMENT_SET_NO": 999, "REV_AT_EPOCH": 212, "BSTAR": -0.010791332, "MEAN_MOTION_DOT": -0.01657144, "MEAN_MOTION_DDOT": 0}, "tle": {"line1": "1 67006U 25293D   25358.91670139 -.01657144  00000+0 -10791-1 0  9997", "line2": "2 67006  69.9932 288.5314 0003730 266.2980 311.2252 15.78825689  2126"}}, "geometry": {"type": "Point", "coordinates": [110.70024416604059, -8.808342290531128]}}, {"type": "Feature", "properties": {"norad_id": 67007, "name": "STARLINK-36123", "group": "last-30-days", "lat": -6.584210399543312, "lon": 109.87679141280682, "alt_km": 340.50051042588166, "timestamp": "2025-12-25T07:00:32.766484+00:00", "meta": {"OBJECT_NAME": "STARLINK-36123", "OBJECT_ID": "2025-293E", "EPOCH": "2025-12-24T22:00:03.000096", "MEAN_MOTION": 15.78843572, "ECCENTRICITY": 0.0003686, "INCLINATION": 69.9931, "RA_OF_ASC_NODE": 288.5343, "ARG_OF_PERICENTER": 265.5195, "MEAN_ANOMALY": 309.6069, "EPHEMERIS_TYPE": 0, "CLASSIFICATION_TYPE": "U", "NORAD_CAT_ID": 67007, "ELEMENT_SET_NO": 999, "REV_AT_EPOCH": 212, "BSTAR": -0.010758399, "MEAN_MOTION_DOT": -0.01653883, "MEAN_MOTION_DDOT": 0}, "tle": {"line1": "1 67007U 25293E   25358.91670139 -.01653883  00000+0 -10758-1 0  9997", "line2": "2 67007  69.9931 288.5343 0003686 265.5195 309.6069 15.78843572  2126"}}, "geometry": {"type": "Point", "coordinates": [109.87679141280682, -6.584210399543312]}}, {"type": "Feature", "properties": {"norad_id": 67008, "name": "STARLINK-36163", "group": "last-30-days", "lat": -11.522079535111647, "lon": 111.719911229776, "alt_km": 341.20699576117477, "timestamp": "2025-12-25T07:00:32.766494+00:00", "meta": {"OBJECT_NAME": "STARLINK-36163", "OBJECT_ID": "2025-293F", "EPOCH": "2025-12-24T22:00:03.000096", "MEAN_MOTION": 15.78790188, "ECCENTRICITY": 0.00034607, "INCLINATION": 69.9932, "RA_OF_ASC_NODE": 288.528, "ARG_OF_PERICENTER": 269.2449, "MEAN_ANOMALY": 311.2202, "EPHEMERIS_TYPE": 0, "CLASSIFICATION_TYPE": "U", "NORAD_CAT_ID": 67008, "ELEMENT_SET_NO": 999, "REV_AT_EPOCH": 212, "BSTAR": -0.010832042, "MEAN_MOTION_DOT": -0.0165994, "MEAN_MOTION_DDOT": 0}, "tle": {"line1": "1 67008U 25293F   25358.91670139 -.01659940  00000+0 -10832-1 0  9991", "line2": "2 67008  69.9932 288.5280 0003460 269.2449 311.2202 15.78790188  2123"}}, "geometry": {"type": "Point", "coordinates": [111.719911229776, -11.522079535111647]}}, {"type": "Feature", "properties": {"norad_id": 67009, "name": "STARLINK-36118", "group": "last-30-days", "lat": -13.861526390022858, "lon": 112.61571923834941, "alt_km": 341.3464229436195, "timestamp": "2025-12-25T07:00:32.766506+00:00", "meta": {"OBJECT_NAME": "STARLINK-36118", "OBJECT_ID": "2025-293G", "EPOCH": "2025-12-24T22:00:03.000096", "MEAN_MOTION": 15.78767052, "ECCENTRICITY": 0.00034249, "INCLINATION": 69.9931, "RA_OF_ASC_NODE": 288.5249, "ARG_OF_PERICENTER": 267.199, "MEAN_ANOMALY": 315.7949, "EPHEMERIS_TYPE": 0, "CLASSIFICATION_TYPE": "U", "NORAD_CAT_ID": 67009, "ELEMENT_SET_NO": 999, "REV_AT_EPOCH": 206, "BSTAR": -0.010840123, "MEAN_MOTION_DOT": -0.0165946, "MEAN_MOTION_DDOT": 0}, "tle": {"line1": "1 67009U 25293G   25358.91670139 -.01659460  00000+0 -10840-1 0  9998", "line2": "2 67009  69.9931 288.5249 0003424 267.1990 315.7949 15.78767052  2060"}}, "geometry": {"type": "Point", "coordinates": [112.61571923834941, -13.861526390022858]}}]}